[{"OBJECT_NAME":"STARLINK-30788","OBJECT_ID":"2023-166K","EPOCH":"2026-03-09T17:39:05.398560","MEAN_MOTION":15.30184285,"ECCENTRICITY":0.00012416,"INCLINATION":53.1605,"RA_OF_ASC_NODE":219.5892,"ARG_OF_PERICENTER":86.9823,"MEAN_ANOMALY":273.132,"EPHEMERIS_TYPE":0,"CLASSIFICATION_TYPE":"U","NORAD_CAT_ID":58159,"ELEMENT_SET_NO":999,"REV_AT_EPOCH":13303,"BSTAR":1.7382716e-5,"MEAN_MOTION_DOT":1.55e-6,"MEAN_MOTION_DDOT":0},{"OBJECT_NAME":"BANDWAGON-2 OBJECT D","OBJECT_ID":"2024-247D","EPOCH":"2026-03-09T12:32:33.670752","MEAN_MOTION":15.29076102,"ECCENTRICITY":0.00034883,"INCLINATION":44.9954,"RA_OF_ASC_NODE":115.671,"ARG_OF_PERICENTER":351.1453,"MEAN_ANOMALY":8.9368,"EPHEMERIS_TYPE":0,"CLASSIFICATION_TYPE":"U","NORAD_CAT_ID":62380,"ELEMENT_SET_NO":999,"REV_AT_EPOCH":6773,"BSTAR":0.00040119131,"MEAN_MOTION_DOT":0.00011259,"MEAN_MOTION_DDOT":0}]
